start=new Date('2021-10-03T00:00:00.000Z').valueOf();
sats=[{"OBJECT_NAME":"STARLINK-2537","RA_OF_ASC_NODE":"160.9001","ELEMENT_SET_NO":"999","TLE_LINE1":"1 48301U 21036AB  21275.39763214  .00000831  00000-0  74700-4 0  9994","TLE_LINE2":"2 48301  53.0512 160.9001 0001805  64.8159 295.3016 15.06397461 24103","DECAY_DATE":null,"CLASSIFICATION_TYPE":"U","CENTER_NAME":"EARTH","BSTAR":"0.00007470000000","PERIAPSIS":"545.971","EPOCH":"2021-10-02T09:32:35.416896","APOAPSIS":"548.471","RCS_SIZE":"LARGE","SITE":"AFETR","MEAN_MOTION_DDOT":"0.0000000000000","MEAN_MOTION_DOT":"0.00000831","ARG_OF_PERICENTER":"64.8159","TIME_SYSTEM":"UTC","REV_AT_EPOCH":"2410","ECCENTRICITY":"0.00018050","PERIOD":"95.592","MEAN_ELEMENT_THEORY":"SGP4","MEAN_MOTION":"15.06397461","REF_FRAME":"TEME","COUNTRY_CODE":"US","LAUNCH_DATE":"2021-04-29","FILE":"3141323","GP_ID":"186052885","OBJECT_ID":"2021-036AB","SEMIMAJOR_AXIS":"6925.356","MEAN_ANOMALY":"295.3016","EPHEMERIS_TYPE":"0","NORAD_CAT_ID":"48301","OBJECT_TYPE":"PAYLOAD","INCLINATION":"53.0512"},{"DECAY_DATE":null,"TLE_LINE2":"2 48302  53.0538 160.9085 0001871  68.6745 291.4443 15.06392284 24109","TLE_LINE1":"1 48302U 21036AC  21275.39395113  .00000391  00000-0  45133-4 0  9993","CLASSIFICATION_TYPE":"U","CENTER_NAME":"EARTH","OBJECT_NAME":"STARLINK-2556","RA_OF_ASC_NODE":"160.9085","ELEMENT_SET_NO":"999","PERIAPSIS":"545.941","BSTAR":"0.00004513300000","RCS_SIZE":"LARGE","MEAN_MOTION_DDOT":"0.0000000000000","SITE":"AFETR","EPOCH":"2021-10-02T09:27:17.377632","APOAPSIS":"548.533","ARG_OF_PERICENTER":"68.6745","MEAN_MOTION_DOT":"0.00000391","PERIOD":"95.593","TIME_SYSTEM":"UTC","REV_AT_EPOCH":"2410","ECCENTRICITY":"0.00018710","MEAN_ELEMENT_THEORY":"SGP4","MEAN_MOTION":"15.06392284","COUNTRY_CODE":"US","LAUNCH_DATE":"2021-04-29","REF_FRAME":"TEME","EPHEMERIS_TYPE":"0","MEAN_ANOMALY":"291.4443","NORAD_CAT_ID":"48302","INCLINATION":"53.0538","OBJECT_TYPE":"PAYLOAD","OBJECT_ID":"2021-036AC","GP_ID":"186051633","FILE":"3141323","SEMIMAJOR_AXIS":"6925.372"},{"PERIAPSIS":"545.766","BSTAR":"0.00001458300000","CENTER_NAME":"EARTH","CLASSIFICATION_TYPE":"U","TLE_LINE2":"2 48303  53.0543 159.4381 0002097  67.6224 292.4987 15.06398401 24156","DECAY_DATE":null,"TLE_LINE1":"1 48303U 21036AD  21275.72199460 -.00000065  00000-0  14583-4 0  9992","ELEMENT_SET_NO":"999","RA_OF_ASC_NODE":"159.4381","OBJECT_NAME":"STARLINK-2530","ARG_OF_PERICENTER":"67.6224","MEAN_MOTION_DOT":"-0.00000065","MEAN_MOTION_DDOT":"0.0000000000000","SITE":"AFETR","RCS_SIZE":"LARGE","APOAPSIS":"548.671","EPOCH":"2021-10-02T17:19:40.333440","MEAN_MOTION":"15.06398401","MEAN_ELEMENT_THEORY":"SGP4","PERIOD":"95.592","REV_AT_EPOCH":"2415","ECCENTRICITY":"0.00020970","TIME_SYSTEM":"UTC","INCLINATION":"53.0543","OBJECT_TYPE":"PAYLOAD","NORAD_CAT_ID":"48303","EPHEMERIS_TYPE":"0","MEAN_ANOMALY":"292.4987","SEMIMAJOR_AXIS":"6925.353","FILE":"3141323","GP_ID":"186052384","OBJECT_ID":"2021-036AD","LAUNCH_DATE":"2021-04-29","COUNTRY_CODE":"US","REF_FRAME":"TEME"},{"REF_FRAME":"TEME","COUNTRY_CODE":"US","LAUNCH_DATE":"2021-04-29","OBJECT_ID":"2021-036AE","GP_ID":"186052635","FILE":"3141323","SEMIMAJOR_AXIS":"6925.353","EPHEMERIS_TYPE":"0","MEAN_ANOMALY":"290.6556","NORAD_CAT_ID":"48304","INCLINATION":"53.0551","OBJECT_TYPE":"PAYLOAD","TIME_SYSTEM":"UTC","REV_AT_EPOCH":"2415","ECCENTRICITY":"0.00020020","PERIOD":"95.592","MEAN_ELEMENT_THEORY":"SGP4","MEAN_MOTION":"15.06398439","APOAPSIS":"548.605","EPOCH":"2021-10-02T17:14:22.102368","RCS_SIZE":"LARGE","MEAN_MOTION_DDOT":"0.0000000000000","SITE":"AFETR","MEAN_MOTION_DOT":"-0.00000272","ARG_OF_PERICENTER":"69.4648","OBJECT_NAME":"STARLINK-2524","RA_OF_ASC_NODE":"159.4585","ELEMENT_SET_NO":"999","TLE_LINE2":"2 48304  53.0551 159.4585 0002002  69.4648 290.6556 15.06398439 24151","DECAY_DATE":null,"TLE_LINE1":"1 48304U 21036AE  21275.71831137 -.00000272  00000-0  67019-6 0  9990","CLASSIFICATION_TYPE":"U","CENTER_NAME":"EARTH","BSTAR":"0.00000067019000","PERIAPSIS":"545.832"},{"LAUNCH_DATE":"2021-04-29","COUNTRY_CODE":"US","REF_FRAME":"TEME","NORAD_CAT_ID":"48305","OBJECT_TYPE":"PAYLOAD","INCLINATION":"53.0545","EPHEMERIS_TYPE":"0","MEAN_ANOMALY":"288.8820","SEMIMAJOR_AXIS":"6925.352","FILE":"3141323","GP_ID":"186053386","OBJECT_ID":"2021-036AF","PERIOD":"95.592","TIME_SYSTEM":"UTC","REV_AT_EPOCH":"2415","ECCENTRICITY":"0.00021450","MEAN_MOTION":"15.06398755","MEAN_ELEMENT_THEORY":"SGP4","SITE":"AFETR","MEAN_MOTION_DDOT":"0.0000000000000","RCS_SIZE":"LARGE","EPOCH":"2021-10-02T17:09:03.168864","APOAPSIS":"548.703","ARG_OF_PERICENTER":"71.2402","MEAN_MOTION_DOT":"-0.00000118","CLASSIFICATION_TYPE":"U","CENTER_NAME":"EARTH","TLE_LINE2":"2 48305  53.0545 159.4693 0002145  71.2402 288.8820 15.06398755 24156","TLE_LINE1":"1 48305U 21036AF  21275.71462001 -.00000118  00000-0  11024-4 0  9993","DECAY_DATE":null,"ELEMENT_SET_NO":"999","OBJECT_NAME":"STARLINK-2519","RA_OF_ASC_NODE":"159.4693","PERIAPSIS":"545.732","BSTAR":"0.00001102400000"},{"TLE_LINE2":"2 48306  53.0558 159.7918 0002122  72.3548 287.7672 15.06399230 24143","TLE_LINE1":"1 48306U 21036AG  21275.64458717  .00000184  00000-0  31291-4 0  9995","DECAY_DATE":null,"CLASSIFICATION_TYPE":"U","CENTER_NAME":"EARTH","OBJECT_NAME":"STARLINK-2523","RA_OF_ASC_NODE":"159.7918","ELEMENT_SET_NO":"999","PERIAPSIS":"545.746","BSTAR":"0.00003129100000","RCS_SIZE":"LARGE","SITE":"AFETR","MEAN_MOTION_DDOT":"0.0000000000000","APOAPSIS":"548.685","EPOCH":"2021-10-02T15:28:12.331488","ARG_OF_PERICENTER":"72.3548","MEAN_MOTION_DOT":"0.00000184","PERIOD":"95.592","TIME_SYSTEM":"UTC","REV_AT_EPOCH":"2414","ECCENTRICITY":"0.00021220","MEAN_ELEMENT_THEORY":"SGP4","MEAN_MOTION":"15.06399230","COUNTRY_CODE":"US","LAUNCH_DATE":"2021-04-29","REF_FRAME":"TEME","EPHEMERIS_TYPE":"0","MEAN_ANOMALY":"287.7672","NORAD_CAT_ID":"48306","OBJECT_TYPE":"PAYLOAD","INCLINATION":"53.0558","OBJECT_ID":"2021-036AG","GP_ID":"186052134","FILE":"3141323","SEMIMAJOR_AXIS":"6925.351"},{"RCS_SIZE":"LARGE","MEAN_MOTION_DDOT":"0.0000000000000","SITE":"AFETR","APOAPSIS":"548.800","EPOCH":"2021-10-02T09:00:44.002656","ARG_OF_PERICENTER":"61.4674","MEAN_MOTION_DOT":"0.00000443","TLE_LINE2":"2 48307  53.0553 160.9920 0002294  61.4674 298.6546 15.06400582 24105","TLE_LINE1":"1 48307U 21036AH  21275.37550929  .00000443  00000-0  48667-4 0  9997","DECAY_DATE":null,"CLASSIFICATION_TYPE":"U","CENTER_NAME":"EARTH","OBJECT_NAME":"STARLINK-2528","RA_OF_ASC_NODE":"160.9920","ELEMENT_SET_NO":"999","PERIAPSIS":"545.623","BSTAR":"0.00004866700000","COUNTRY_CODE":"US","LAUNCH_DATE":"2021-04-29","REF_FRAME":"TEME","EPHEMERIS_TYPE":"0","MEAN_ANOMALY":"298.6546","NORAD_CAT_ID":"48307","INCLINATION":"53.0553","OBJECT_TYPE":"PAYLOAD","GP_ID":"186051884","OBJECT_ID":"2021-036AH","FILE":"3141323","SEMIMAJOR_AXIS":"6925.347","PERIOD":"95.592","TIME_SYSTEM":"UTC","REV_AT_EPOCH":"2410","ECCENTRICITY":"0.00022940","MEAN_ELEMENT_THEORY":"SGP4","MEAN_MOTION":"15.06400582"},{"ELEMENT_SET_NO":"999","OBJECT_NAME":"STARLINK-2532","RA_OF_ASC_NODE":"162.2047","CLASSIFICATION_TYPE":"U","CENTER_NAME":"EARTH","TLE_LINE2":"2 48308  53.0545 162.2047 0001966  58.5516 301.5665 15.06396811 24069","TLE_LINE1":"1 48308U 21036AJ  21275.10644502  .00002786  00000-0  20588-3 0  9993","DECAY_DATE":null,"BSTAR":"0.00020588000000","PERIAPSIS":"545.862","APOAPSIS":"548.585","EPOCH":"2021-10-02T02:33:16.849728","SITE":"AFETR","MEAN_MOTION_DDOT":"0.0000000000000","RCS_SIZE":"LARGE","MEAN_MOTION_DOT":"0.00002786","ARG_OF_PERICENTER":"58.5516","TIME_SYSTEM":"UTC","REV_AT_EPOCH":"2406","ECCENTRICITY":"0.00019660","PERIOD":"95.592","MEAN_MOTION":"15.06396811","MEAN_ELEMENT_THEORY":"SGP4","REF_FRAME":"TEME","LAUNCH_DATE":"2021-04-29","COUNTRY_CODE":"US","SEMIMAJOR_AXIS":"6925.358","GP_ID":"186015681","FILE":"3140732","OBJECT_ID":"2021-036AJ","NORAD_CAT_ID":"48308","OBJECT_TYPE":"PAYLOAD","INCLINATION":"53.0545","EPHEMERIS_TYPE":"0","MEAN_ANOMALY":"301.5665"},{"SITE":"AFETR","MEAN_MOTION_DDOT":"0.0000000000000","RCS_SIZE":"LARGE","APOAPSIS":"548.486","EPOCH":"2021-10-02T02:27:58.209984","ARG_OF_PERICENTER":"56.1194","MEAN_MOTION_DOT":"0.00000772","CLASSIFICATION_TYPE":"U","CENTER_NAME":"EARTH","DECAY_DATE":null,"TLE_LINE2":"2 48309  53.0572 162.2318 0001839  56.1194 303.9970 15.06400375 24657","TLE_LINE1":"1 48309U 21036AK  21275.10275706  .00000772  00000-0  70711-4 0  9997","ELEMENT_SET_NO":"999","OBJECT_NAME":"STARLINK-2517","RA_OF_ASC_NODE":"162.2318","PERIAPSIS":"545.939","BSTAR":"0.00007071100000","LAUNCH_DATE":"2021-04-29","COUNTRY_CODE":"US","REF_FRAME":"TEME","NORAD_CAT_ID":"48309","OBJECT_TYPE":"PAYLOAD","INCLINATION":"53.0572","MEAN_ANOMALY":"303.9970","EPHEMERIS_TYPE":"0","SEMIMAJOR_AXIS":"6925.347","FILE":"3140863","GP_ID":"186019737","OBJECT_ID":"2021-036AK","PERIOD":"95.592","TIME_SYSTEM":"UTC","REV_AT_EPOCH":"2465","ECCENTRICITY":"0.00018390","MEAN_MOTION":"15.06400375","MEAN_ELEMENT_THEORY":"SGP4"},{"PERIAPSIS":"545.868","BSTAR":"0.00003246500000","TLE_LINE2":"2 48310  53.0547 162.2318 0001904  64.0073 296.1112 15.06408840 24069","DECAY_DATE":null,"TLE_LINE1":"1 48310U 21036AL  21275.09906343  .00000202  00000-0  32465-4 0  9997","CENTER_NAME":"EARTH","CLASSIFICATION_TYPE":"U","RA_OF_ASC_NODE":"162.2318","OBJECT_NAME":"STARLINK-2536","ELEMENT_SET_NO":"999","ARG_OF_PERICENTER":"64.0073","MEAN_MOTION_DOT":"0.00000202","RCS_SIZE":"LARGE","SITE":"AFETR","MEAN_MOTION_DDOT":"0.0000000000000","APOAPSIS":"548.505","EPOCH":"2021-10-02T02:22:39.080352","MEAN_ELEMENT_THEORY":"SGP4","MEAN_MOTION":"15.06408840","PERIOD":"95.592","REV_AT_EPOCH":"2406","ECCENTRICITY":"0.00019040","TIME_SYSTEM":"UTC","EPHEMERIS_TYPE":"0","MEAN_ANOMALY":"296.1112","OBJECT_TYPE":"PAYLOAD","INCLINATION":"53.0547","NORAD_CAT_ID":"48310","GP_ID":"186014679","FILE":"3140732","OBJECT_ID":"2021-036AL","SEMIMAJOR_AXIS":"6925.321","COUNTRY_CODE":"US","LAUNCH_DATE":"2021-04-29","REF_FRAME":"TEME"}];
